{
  "type": "FeatureCollection",
  "features": [
    {
      "type": "Feature",
      "properties": {
        "norad_id": 66376,
        "name": "SHIYAN-32 01",
        "group": "last-30-days",
        "lat": -51.04019751844292,
        "lon": 127.08911984975575,
        "alt_km": 445.86371944343045,
        "timestamp": "2025-12-08T23:34:02.737836+00:00",
        "meta_object_name": "SHIYAN-32 01",
        "meta_object_id": "2025-255A",
        "meta_epoch": "2025-12-08T19:14:05.273088",
        "meta_mean_motion": 15.4259212,
        "meta_eccentricity": 0.0013619,
        "meta_inclination": 52.9951,
        "meta_ra_of_asc_node": 196.811,
        "meta_arg_of_pericenter": 29.3953,
        "meta_mean_anomaly": 330.7814,
        "meta_ephemeris_type": 0,
        "meta_classification_type": "U",
        "meta_norad_cat_id": 66376,
        "meta_element_set_no": 999,
        "meta_rev_at_epoch": 474,
        "meta_bstar": 0.00059404,
        "meta_mean_motion_dot": 0.00025982,
        "meta_mean_motion_ddot": 0,
        "tle_line1": "1 66376U 25255A   25342.80144992  .00025982  00000+0  59404-3 0  9990",
        "tle_line2": "2 66376  52.9951 196.8110 0013619  29.3953 330.7814 15.42592120  4740"
      },
      "geometry": {
        "type": "Point",
        "coordinates": [
          127.08911984975575,
          -51.04019751844292
        ]
      }
    },
    {
      "type": "Feature",
      "properties": {
        "norad_id": 66377,
        "name": "CZ-11 DEB",
        "group": "last-30-days",
        "lat": 13.920656883535065,
        "lon": -153.46126925220133,
        "alt_km": 423.4937951801958,
        "timestamp": "2025-12-08T23:34:02.737893+00:00",
        "meta_object_name": "CZ-11 DEB",
        "meta_object_id": "2025-255B",
        "meta_epoch": "2025-12-08T15:43:30.202752",
        "meta_mean_motion": 15.44112254,
        "meta_eccentricity": 0.00138879,
        "meta_inclination": 52.9948,
        "meta_ra_of_asc_node": 197.321,
        "meta_arg_of_pericenter": 26.378,
        "meta_mean_anomaly": 333.7929,
        "meta_ephemeris_type": 0,
        "meta_classification_type": "U",
        "meta_norad_cat_id": 66377,
        "meta_element_set_no": 999,
        "meta_rev_at_epoch": 458,
        "meta_bstar": 0.0008659602,
        "meta_mean_motion_dot": 0.00040169,
        "meta_mean_motion_ddot": 0,
        "tle_line1": "1 66377U 25255B   25342.65521068  .00040169  00000+0  86596-3 0  9993",
        "tle_line2": "2 66377  52.9948 197.3210 0013887  26.3780 333.7929 15.44112254  4586"
      },
      "geometry": {
        "type": "Point",
        "coordinates": [
          -153.46126925220133,
          13.920656883535065
        ]
      }
    },
    {
      "type": "Feature",
      "properties": {
        "norad_id": 66378,
        "name": "SHIYAN-32 02",
        "group": "last-30-days",
        "lat": 42.95756590565365,
        "lon": -119.70087303077709,
        "alt_km": 419.5874631133447,
        "timestamp": "2025-12-08T23:34:02.737911+00:00",
        "meta_object_name": "SHIYAN-32 02",
        "meta_object_id": "2025-255C",
        "meta_epoch": "2025-12-08T18:39:26.254080",
        "meta_mean_motion": 15.44771666,
        "meta_eccentricity": 0.0012189,
        "meta_inclination": 52.9919,
        "meta_ra_of_asc_node": 196.6578,
        "meta_arg_of_pericenter": 21.8642,
        "meta_mean_anomaly": 338.2881,
        "meta_ephemeris_type": 0,
        "meta_classification_type": "U",
        "meta_norad_cat_id": 66378,
        "meta_element_set_no": 999,
        "meta_rev_at_epoch": 460,
        "meta_bstar": 0.00088427,
        "meta_mean_motion_dot": 0.00041942,
        "meta_mean_motion_ddot": 0,
        "tle_line1": "1 66378U 25255C   25342.77738720  .00041942  00000+0  88427-3 0  9997",
        "tle_line2": "2 66378  52.9919 196.6578 0012189  21.8642 338.2881 15.44771666  4603"
      },
      "geometry": {
        "type": "Point",
        "coordinates": [
          -119.70087303077709,
          42.95756590565365
        ]
      }
    },
    {
      "type": "Feature",
      "properties": {
        "norad_id": 66379,
        "name": "SHIYAN-32 03",
        "group": "last-30-days",
        "lat": -29.958930304551277,
        "lon": 170.11017591893093,
        "alt_km": 437.62631087711543,
        "timestamp": "2025-12-08T23:34:02.737924+00:00",
        "meta_object_name": "SHIYAN-32 03",
        "meta_object_id": "2025-255D",
        "meta_epoch": "2025-12-08T19:04:13.935936",
        "meta_mean_motion": 15.42904041,
        "meta_eccentricity": 0.0015675,
        "meta_inclination": 52.9957,
        "meta_ra_of_asc_node": 196.7687,
        "meta_arg_of_pericenter": 30.517,
        "meta_mean_anomaly": 329.6743,
        "meta_ephemeris_type": 0,
        "meta_classification_type": "U",
        "meta_norad_cat_id": 66379,
        "meta_element_set_no": 999,
        "meta_rev_at_epoch": 462,
        "meta_bstar": 0.00044924,
        "meta_mean_motion_dot": 0.00019759,
        "meta_mean_motion_ddot": 0,
        "tle_line1": "1 66379U 25255D   25342.79460574  .00019759  00000+0  44924-3 0  9994",
        "tle_line2": "2 66379  52.9957 196.7687 0015675  30.5170 329.6743 15.42904041  4620"
      },
      "geometry": {
        "type": "Point",
        "coordinates": [
          170.11017591893093,
          -29.958930304551277
        ]
      }
    },
    {
      "type": "Feature",
      "properties": {
        "norad_id": 66380,
        "name": "STARLINK-35139",
        "group": "last-30-days",
        "lat": -17.590889178127128,
        "lon": 116.1121280325758,
        "alt_km": 450.83003913807624,
        "timestamp": "2025-12-08T23:34:02.737937+00:00",
        "meta_object_name": "STARLINK-35139",
        "meta_object_id": "2025-257A",
        "meta_epoch": "2025-12-08T14:00:01.999872",
        "meta_mean_motion": 15.39677109,
        "meta_eccentricity": 8.108e-05,
        "meta_inclination": 53.1597,
        "meta_ra_of_asc_node": 284.2403,
        "meta_arg_of_pericenter": 68.58,
        "meta_mean_anomaly": 82.9069,
        "meta_ephemeris_type": 0,
        "meta_classification_type": "U",
        "meta_norad_cat_id": 66380,
        "meta_element_set_no": 999,
        "meta_rev_at_epoch": 576,
        "meta_bstar": -0.0055644975,
        "meta_mean_motion_dot": -0.00217155,
        "meta_mean_motion_ddot": 0,
        "tle_line1": "1 66380U 25257A   25342.58335648 -.00217155  00000+0 -55645-2 0  9991",
        "tle_line2": "2 66380  53.1597 284.2403 0000810  68.5800  82.9069 15.39677109  5764"
      },
      "geometry": {
        "type": "Point",
        "coordinates": [
          116.1121280325758,
          -17.590889178127128
        ]
      }
    },
    {
      "type": "Feature",
      "properties": {
        "norad_id": 66381,
        "name": "STARLINK-35158",
        "group": "last-30-days",
        "lat": -11.912876142982597,
        "lon": 111.47589372725967,
        "alt_km": 453.273752748426,
        "timestamp": "2025-12-08T23:34:02.737949+00:00",
        "meta_object_name": "STARLINK-35158",
        "meta_object_id": "2025-257B",
        "meta_epoch": "2025-12-08T08:40:19.845120",
        "meta_mean_motion": 15.37258046,
        "meta_eccentricity": 0.00139812,
        "meta_inclination": 53.1599,
        "meta_ra_of_asc_node": 285.2862,
        "meta_arg_of_pericenter": 163.4456,
        "meta_mean_anomaly": 196.7007,
        "meta_ephemeris_type": 0,
        "meta_classification_type": "U",
        "meta_norad_cat_id": 66381,
        "meta_element_set_no": 999,
        "meta_rev_at_epoch": 569,
        "meta_bstar": -0.039296834,
        "meta_mean_motion_dot": -0.01336514,
        "meta_mean_motion_ddot": 0,
        "tle_line1": "1 66381U 25257B   25342.36134080 -.01336514  00000+0 -39297-1 0  9991",
        "tle_line2": "2 66381  53.1599 285.2862 0013981 163.4456 196.7007 15.37258046  5693"
      },
      "geometry": {
        "type": "Point",
        "coordinates": [
          111.47589372725967,
          -11.912876142982597
        ]
      }
    },
    {
      "type": "Feature",
      "properties": {
        "norad_id": 66382,
        "name": "STARLINK-35639",
        "group": "last-30-days",
        "lat": -36.465510943262124,
        "lon": 135.9558852504963,
        "alt_km": 452.3862676039571,
        "timestamp": "2025-12-08T23:34:02.737964+00:00",
        "meta_object_name": "STARLINK-35639",
        "meta_object_id": "2025-257C",
        "meta_epoch": "2025-12-08T13:14:03.644448",
        "meta_mean_motion": 15.39624157,
        "meta_eccentricity": 0.00022233,
        "meta_inclination": 53.1597,
        "meta_ra_of_asc_node": 284.3387,
        "meta_arg_of_pericenter": 86.4104,
        "meta_mean_anomaly": 273.7155,
        "meta_ephemeris_type": 0,
        "meta_classification_type": "U",
        "meta_norad_cat_id": 66382,
        "meta_element_set_no": 999,
        "meta_rev_at_epoch": 572,
        "meta_bstar": 0.0020006019,
        "meta_mean_motion_dot": 0.00080485,
        "meta_mean_motion_ddot": 0,
        "tle_line1": "1 66382U 25257C   25342.55143107  .00080485  00000+0  20006-2 0  9992",
        "tle_line2": "2 66382  53.1597 284.3387 0002223  86.4104 273.7155 15.39624157  5721"
      },
      "geometry": {
        "type": "Point",
        "coordinates": [
          135.9558852504963,
          -36.465510943262124
        ]
      }
    }
  ]
}